{"type": "FeatureCollection", "features": [ {"type": "Feature", "properties": {"norad_id": 34376, "name": "IRIDIUM 33 DEB", "group": "iridium-33-debris", "lat": -72.51011005416417, "lon": -167.50496715293917, "alt_km": 704.4151863134994, "timestamp": "2025-12-25T20:42:39.073105+00:00", "meta": {"OBJECT_NAME": "IRIDIUM 33 DEB", "OBJECT_ID": "1997-051FU", "EPOCH": "2025-12-24T17:17:28.891392", "MEAN_MOTION": 14.62726881, "ECCENTRICITY": 0.00284367, "INCLINATION": 86.2983, "RA_OF_ASC_NODE": 1.1525, "ARG_OF_PERICENTER": 127.427, "MEAN_ANOMALY": 232.9536, "EPHEMERIS_TYPE": 0, "CLASSIFICATION_TYPE": "U", "NORAD_CAT_ID": 34376, "ELEMENT_SET_NO": 999, "REV_AT_EPOCH": 88182, "BSTAR": 0.001533236, "MEAN_MOTION_DOT": 7.879e-05, "MEAN_MOTION_DDOT": 0}, "tle": {"line1": "1 34376U 97051FU  25358.72047328  .00007879  00000+0  15332-2 0  9997", "line2": "2 34376  86.2983   1.1525 0028436 127.4270 232.9536 14.62726881881823"}}, "geometry": {"type": "Point", "coordinates": [-167.50496715293917, -72.51011005416417]}}, {"type": "Feature", "properties": {"norad_id": 34486, "name": "IRIDIUM 33 DEB", "group": "iridium-33-debris", "lat": -65.98058183803865, "lon": -165.89762610414843, "alt_km": 595.0043320789937, "timestamp": "2025-12-25T20:42:39.073115+00:00", "meta": {"OBJECT_NAME": "IRIDIUM 33 DEB", "OBJECT_ID": "1997-051GB", "EPOCH": "2025-12-25T00:37:54.079968", "MEAN_MOTION": 14.96343831, "ECCENTRICITY": 0.00139263, "INCLINATION": 86.3927, "RA_OF_ASC_NODE": 6.3505, "ARG_OF_PERICENTER": 77.1371, "MEAN_ANOMALY": 345.1721, "EPHEMERIS_TYPE": 0, "CLASSIFICATION_TYPE": "U", "NORAD_CAT_ID": 34486, "ELEMENT_SET_NO": 999, "REV_AT_EPOCH": 89170, "BSTAR": 0.0022973731, "MEAN_MOTION_DOT": 0.00026127, "MEAN_MOTION_DDOT": 0}, "tle": {"line1": "1 34486U 97051GB  25359.02632037  .00026127  00000+0  22974-2 0  9997", "line2": "2 34486  86.3927   6.3505 0013926  77.1371 345.1721 14.96343831891708"}}, "geometry": {"type": "Point", "coordinates": [-165.89762610414843, -65.98058183803865]}}, {"type": "Feature", "properties": {"norad_id": 34487, "name": "IRIDIUM 33 DEB", "group": "iridium-33-debris", "lat": -71.8917859799432, "lon": -4.552038647659137, "alt_km": 777.4454926360022, "timestamp": "2025-12-25T20:42:39.073125+00:00", "meta": {"OBJECT_NAME": "IRIDIUM 33 DEB", "OBJECT_ID": "1997-051GC", "EPOCH": "2025-12-25T01:19:57.963072", "MEAN_MOTION": 14.43231551, "ECCENTRICITY": 0.00332623, "INCLINATION": 86.3429, "RA_OF_ASC_NODE": 7.0742, "ARG_OF_PERICENTER": 90.1032, "MEAN_ANOMALY": 325.4273, "EPHEMERIS_TYPE": 0, "CLASSIFICATION_TYPE": "U", "NORAD_CAT_ID": 34487, "ELEMENT_SET_NO": 999, "REV_AT_EPOCH": 88426, "BSTAR": 0.0001885437, "MEAN_MOTION_DOT": 6.59e-06, "MEAN_MOTION_DDOT": 0}, "tle": {"line1": "1 34487U 97051GC  25359.05553198  .00000659  00000+0  18854-3 0  9996", "line2": "2 34487  86.3429   7.0742 0033262  90.1032 325.4273 14.43231551884264"}}, "geometry": {"type": "Point", "coordinates": [-4.552038647659137, -71.8917859799432]}}, {"type": "Feature", "properties": {"norad_id": 34488, "name": "IRIDIUM 33 DEB", "group": "iridium-33-debris", "lat": 77.61106055051305, "lon": -43.688799706500234, "alt_km": 456.23963610250485, "timestamp": "2025-12-25T20:42:39.073135+00:00", "meta": {"OBJECT_NAME": "IRIDIUM 33 DEB", "OBJECT_ID": "1997-051GD", "EPOCH": "2025-12-24T20:52:00.225120", "MEAN_MOTION": 15.32501741, "ECCENTRICITY": 0.0009278, "INCLINATION": 86.3252, "RA_OF_ASC_NODE": 299.7925, "ARG_OF_PERICENTER": 31.7639, "MEAN_ANOMALY": 328.4168, "EPHEMERIS_TYPE": 0, "CLASSIFICATION_TYPE": "U", "NORAD_CAT_ID": 34488, "ELEMENT_SET_NO": 999, "REV_AT_EPOCH": 89425, "BSTAR": 0.0047265, "MEAN_MOTION_DOT": 0.0015116, "MEAN_MOTION_DDOT": 0}, "tle": {"line1": "1 34488U 97051GD  25358.86944705  .00151160  00000+0  47265-2 0  9994", "line2": "2 34488  86.3252 299.7925 0009278  31.7639 328.4168 15.32501741894252"}}, "geometry": {"type": "Point", "coordinates": [-43.688799706500234, 77.61106055051305]}}, {"type": "Feature", "properties": {"norad_id": 34492, "name": "IRIDIUM 33 DEB", "group": "iridium-33-debris", "lat": -79.52573081285311, "lon": -50.16437746568568, "alt_km": 796.8464622436923, "timestamp": "2025-12-25T20:42:39.073145+00:00", "meta": {"OBJECT_NAME": "IRIDIUM 33 DEB", "OBJECT_ID": "1997-051GH", "EPOCH": "2025-12-24T21:39:21.521088", "MEAN_MOTION": 14.25932668, "ECCENTRICITY": 0.0188786, "INCLINATION": 86.473, "RA_OF_ASC_NODE": 329.7114, "ARG_OF_PERICENTER": 198.6425, "MEAN_ANOMALY": 190.963, "EPHEMERIS_TYPE": 0, "CLASSIFICATION_TYPE": "U", "NORAD_CAT_ID": 34492, "ELEMENT_SET_NO": 999, "REV_AT_EPOCH": 85232, "BSTAR": 0.0029502, "MEAN_MOTION_DOT": 8.501e-05, "MEAN_MOTION_DDOT": 0}, "tle": {"line1": "1 34492U 97051GH  25358.90233242  .00008501  00000+0  29502-2 0  9995", "line2": "2 34492  86.4730 329.7114 0188786 198.6425 190.9630 14.25932668852326"}}, "geometry": {"type": "Point", "coordinates": [-50.16437746568568, -79.52573081285311]}}, {"type": "Feature", "properties": {"norad_id": 34497, "name": "IRIDIUM 33 DEB", "group": "iridium-33-debris", "lat": -52.10791527464709, "lon": -128.40557991769123, "alt_km": 782.7183406620497, "timestamp": "2025-12-25T20:42:39.073155+00:00", "meta": {"OBJECT_NAME": "IRIDIUM 33 DEB", "OBJECT_ID": "1997-051GN", "EPOCH": "2025-12-22T21:33:03.136608", "MEAN_MOTION": 14.27482363, "ECCENTRICITY": 0.00780484, "INCLINATION": 86.2769, "RA_OF_ASC_NODE": 48.0617, "ARG_OF_PERICENTER": 306.2683, "MEAN_ANOMALY": 179.2919, "EPHEMERIS_TYPE": 0, "CLASSIFICATION_TYPE": "U", "NORAD_CAT_ID": 34497, "ELEMENT_SET_NO": 999, "REV_AT_EPOCH": 87028, "BSTAR": 0.00056228088, "MEAN_MOTION_DOT": 1.443e-05, "MEAN_MOTION_DDOT": 0}, "tle": {"line1": "1 34497U 97051GN  25356.89795297  .00001443  00000+0  56228-3 0  9993", "line2": "2 34497  86.2769  48.0617 0078048 306.2683 179.2919 14.27482363870281"}}, "geometry": {"type": "Point", "coordinates": [-128.40557991769123, -52.10791527464709]}}, {"type": "Feature", "properties": {"norad_id": 34508, "name": "IRIDIUM 33 DEB", "group": "iridium-33-debris", "lat": -10.835470893120402, "lon": -82.2240897954325, "alt_km": 743.6382975247743, "timestamp": "2025-12-25T20:42:39.073165+00:00", "meta": {"OBJECT_NAME": "IRIDIUM 33 DEB", "OBJECT_ID": "1997-051GZ", "EPOCH": "2025-12-24T17:07:17.089536", "MEAN_MOTION": 14.3851431, "ECCENTRICITY": 0.00666407, "INCLINATION": 86.3702, "RA_OF_ASC_NODE": 97.5672, "ARG_OF_PERICENTER": 134.5991, "MEAN_ANOMALY": 226.0672, "EPHEMERIS_TYPE": 0, "CLASSIFICATION_TYPE": "U", "NORAD_CAT_ID": 34508, "ELEMENT_SET_NO": 999, "REV_AT_EPOCH": 87481, "BSTAR": 0.0012177441, "MEAN_MOTION_DOT": 3.837e-05, "MEAN_MOTION_DDOT": 0}, "tle": {"line1": "1 34508U 97051GZ  25358.71339224  .00003837  00000+0  12177-2 0  9996", "line2": "2 34508  86.3702  97.5672 0066640 134.5991 226.0672 14.38514310874811"}}, "geometry": {"type": "Point", "coordinates": [-82.2240897954325, -10.835470893120402]}}, {"type": "Feature", "properties": {"norad_id": 34521, "name": "IRIDIUM 33 DEB", "group": "iridium-33-debris", "lat": 75.05365425943889, "lon": -168.95493166116592, "alt_km": 673.8161614844785, "timestamp": "2025-12-25T20:42:39.073175+00:00", "meta": {"OBJECT_NAME": "IRIDIUM 33 DEB", "OBJECT_ID": "1997-051HN", "EPOCH": "2025-12-24T19:37:11.782272", "MEAN_MOTION": 14.63462765, "ECCENTRICITY": 0.00031171, "INCLINATION": 86.3786, "RA_OF_ASC_NODE": 25.2294, "ARG_OF_PERICENTER": 167.2726, "MEAN_ANOMALY": 192.8565, "EPHEMERIS_TYPE": 0, "CLASSIFICATION_TYPE": "U", "NORAD_CAT_ID": 34521, "ELEMENT_SET_NO": 999, "REV_AT_EPOCH": 88649, "BSTAR": 0.00083071408, "MEAN_MOTION_DOT": 4.322e-05, "MEAN_MOTION_DDOT": 0}, "tle": {"line1": "1 34521U 97051HN  25358.81749748  .00004322  00000+0  83071-3 0  9990", "line2": "2 34521  86.3786  25.2294 0003117 167.2726 192.8565 14.63462765886497"}}, "geometry": {"type": "Point", "coordinates": [-168.95493166116592, 75.05365425943889]}}, {"type": "Feature", "properties": {"norad_id": 34525, "name": "IRIDIUM 33 DEB", "group": "iridium-33-debris", "lat": 36.34901892327245, "lon": 43.91804594586474, "alt_km": 742.4193306512416, "timestamp": "2025-12-25T20:42:39.073185+00:00", "meta": {"OBJECT_NAME": "IRIDIUM 33 DEB", "OBJECT_ID": "1997-051HS", "EPOCH": "2025-12-25T02:30:42.897888", "MEAN_MOTION": 14.42933846, "ECCENTRICITY": 0.00062357, "INCLINATION": 86.3717, "RA_OF_ASC_NODE": 41.5654, "ARG_OF_PERICENTER": 66.5696, "MEAN_ANOMALY": 353.5151, "EPHEMERIS_TYPE": 0, "CLASSIFICATION_TYPE": "U", "NORAD_CAT_ID": 34525, "ELEMENT_SET_NO": 999, "REV_AT_EPOCH": 88266, "BSTAR": 0.00033935574, "MEAN_MOTION_DOT": 1.154e-05, "MEAN_MOTION_DDOT": 0}, "tle": {"line1": "1 34525U 97051HS  25359.10466317  .00001154  00000+0  33936-3 0  9990", "line2": "2 34525  86.3717  41.5654 0006235  66.5696 353.5151 14.42933846882669"}}, "geometry": {"type": "Point", "coordinates": [43.91804594586474, 36.34901892327245]}}, {"type": "Feature", "properties": {"norad_id": 34529, "name": "IRIDIUM 33 DEB", "group": "iridium-33-debris", "lat": -3.025287576222884, "lon": -149.990714250453, "alt_km": 756.6749908475267, "timestamp": "2025-12-25T20:42:39.073196+00:00", "meta": {"OBJECT_NAME": "IRIDIUM 33 DEB", "OBJECT_ID": "1997-051HW", "EPOCH": "2025-12-25T03:11:41.417664", "MEAN_MOTION": 14.40625756, "ECCENTRICITY": 0.00061749, "INCLINATION": 86.3629, "RA_OF_ASC_NODE": 30.1278, "ARG_OF_PERICENTER": 141.8803, "MEAN_ANOMALY": 218.2834, "EPHEMERIS_TYPE": 0, "CLASSIFICATION_TYPE": "U", "NORAD_CAT_ID": 34529, "ELEMENT_SET_NO": 999, "REV_AT_EPOCH": 88320, "BSTAR": 0.00012533763, "MEAN_MOTION_DOT": 4.2e-06, "MEAN_MOTION_DDOT": 0}, "tle": {"line1": "1 34529U 97051HW  25359.13311826  .00000420  00000+0  12534-3 0  9997", "line2": "2 34529  86.3629  30.1278 0006174 141.8803 218.2834 14.40625756883202"}}, "geometry": {"type": "Point", "coordinates": [-149.990714250453, -3.025287576222884]}}]}